COMMENT,ORIGINATOR,NORAD_CAT_ID,OBJECT_NAME,OBJECT_TYPE,CLASSIFICATION_TYPE,INTLDES,EPOCH,EPOCH_MICROSECONDS,MEAN_MOTION,ECCENTRICITY,INCLINATION,RA_OF_ASC_NODE,ARG_OF_PERICENTER,MEAN_ANOMALY,EPHEMERIS_TYPE,ELEMENT_SET_NO,REV_AT_EPOCH,BSTAR,MEAN_MOTION_DOT,MEAN_MOTION_DDOT,FILE,TLE_LINE0,TLE_LINE1,TLE_LINE2,OBJECT_ID,OBJECT_NUMBER,SEMIMAJOR_AXIS,PERIOD,APOGEE,PERIGEE
"GENERATED VIA SPACETRACK.ORG API","JSPOC","11736","SL-8 R/B","ROCKET BODY","U","80022B","2016-01-08 22:35:22","487136","13.7640212","0.0034337","82.9416","188.3218","122.2175","41.9439","0","999","79826","-4.5762e-05","-2.9e-07","0","1978186","0 SL-8 R/B","1 11736U 80022B   16008.94123249 -.00000029 +00000-0 -45762-4 0  9990","2 11736 082.9416 188.3218 0034337 122.2175 041.9439 13.76402120798269","1980-022B","11736","7354.812","104.620","1001.931","951.423"
"GENERATED VIA SPACETRACK.ORG API","JSPOC","25520","PAN SAT","PAYLOAD","U","98064B","2016-01-08 22:35:34","304064","15.27173704","0.0005155","28.4575","319.1445","302.9338","57.0761","0","999","95355","6.1292e-05","1.9e-05","0","1978186","0 PAN SAT","1 25520U 98064B   16008.94136926 +.00001900 +00000-0 +61292-4 0  9990","2 25520 028.4575 319.1445 0005155 302.9338 057.0761 15.27173704953558","1998-064B","25520","6862.402","94.291","487.805","480.730"
"GENERATED VIA SPACETRACK.ORG API","JSPOC","6270","COSMOS 535","PAYLOAD","U","72087H","2016-01-08 22:35:42","211392","12.59293693","0.0053373","74.0353","5.4647","94.8577","290.2583","0","999","98525","1.9471e-06","-1.6e-07","0","1978186","0 COSMOS 535","1  6270U 72087H   16008.94146078 -.00000016 +00000-0 +19471-5 0  9998","2  6270 074.0353 005.4647 0053373 094.8577 290.2583 12.59293693985253","1972-087H","6270","7803.998","114.349","1467.515","1384.210"
"GENERATED VIA SPACETRACK.ORG API","JSPOC","6825","COSMOS 585","PAYLOAD","U","73064A","2016-01-08 22:35:45","98016","12.68186333","0.0019137","74.0237","6.6193","331.0503","52.6296","0","999","95988","-6.4471e-06","-1.8e-07","0","1978186","0 COSMOS 585","1  6825U 73064A   16008.94149419 -.00000018 +00000-0 -64471-5 0  9995","2  6825 074.0237 006.6193 0019137 331.0503 052.6296 12.68186333959887","1973-064A","6825","7767.473","113.547","1404.203","1374.474"
"GENERATED VIA SPACETRACK.ORG API","JSPOC","8513","RADUGA 1","PAYLOAD","U","75123A","2016-01-08 22:35:46","78656","1.00247198","0.000799","11.3371","318.2842","176.5389","27.5648","0","999","15671","0","-7.8e-07","0","1977901","0 RADUGA 1","1 08513U 75123A   16008.94150554 -.00000078  00000-0  00000+0 0  9998","2 08513  11.3371 318.2842 0007990 176.5389  27.5648  1.00247198156711","1975-123A","8513","42171.625","1436.449","35827.186","35759.795"
"GENERATED VIA SPACETRACK.ORG API","JSPOC","8513","RADUGA 1","PAYLOAD","U","75123A","2016-01-08 22:35:46","78656","1.00247198","0.000799","11.3371","318.2842","176.5389","27.5648","0","999","15658","0","-7.9e-07","0","1978186","0 RADUGA 1","1  8513U 75123A   16008.94150554 -.00000079 +00000-0 +00000-0 0  9990","2  8513 011.3371 318.2842 0007990 176.5389 027.5648 01.00247198156586","1975-123A","8513","42171.625","1436.449","35827.186","35759.795"
"GENERATED VIA SPACETRACK.ORG API","JSPOC","37931","SHIYUAN 4 (SY-4)","PAYLOAD","U","11068B","2016-01-08 22:35:47","215680","14.29838601","0.0014181","98.484","3.5573","142.19","218.0305","0","999","21588","3.703e-05","5.3e-07","0","1978186","0 SHIYUAN 4 (SY-4)","1 37931U 11068B   16008.94151870 +.00000053 +00000-0 +37030-4 0  9994","2 37931 098.4840 003.5573 0014181 142.1900 218.0305 14.29838601215888","2011-068B","37931","7170.407","100.710","802.440","782.104"
"GENERATED VIA SPACETRACK.ORG API","JSPOC","27664","XSS 10","PAYLOAD","U","03005B","2016-01-08 22:35:48","998976","14.78051784","0.0180156","39.7508","290.9675","319.0687","39.6688","0","999","69737","9.1481e-05","7.33e-06","0","1978186","0 XSS 10","1 27664U 03005B   16008.94153934 +.00000733 +00000-0 +91481-4 0  9996","2 27664 039.7508 290.9675 0180156 319.0687 039.6688 14.78051784697379","2003-005B","27664","7013.617","97.425","761.836","509.127"
"GENERATED VIA SPACETRACK.ORG API","JSPOC","24307","INMARSAT 3-F2","PAYLOAD","U","96053A","2016-01-08 22:35:53","692224","1.00271498","0.0007424","1.5642","80.397","206.2455","144.7507","0","999","7076","0","-1.18e-06","0","1978186","0 INMARSAT 3-F2","1 24307U 96053A   16008.94159366 -.00000118 +00000-0 +00000-0 0  9998","2 24307 001.5642 080.3970 0007424 206.2455 144.7507 01.00271498070764","1996-053A","24307","42164.812","1436.101","35817.980","35755.374"
"GENERATED VIA SPACETRACK.ORG API","JSPOC","24901","ABS 3 (AGILA 2)","PAYLOAD","U","97042A","2016-01-08 22:35:53","692224","1.00271593","0.0007045","3.9165","66.4779","225.7775","138.8713","0","999","6732","0","-1.24e-06","0","1978186","0 ABS 3 (AGILA 2)","1 24901U 97042A   16008.94159366 -.00000124 +00000-0 +00000-0 0  9994","2 24901 003.9165 066.4779 0007045 225.7775 138.8713 01.00271593067329","1997-042A","24901","42164.785","1436.099","35816.355","35756.945"
"GENERATED VIA SPACETRACK.ORG API","JSPOC","35496","TERRESTAR 1","PAYLOAD","U","09035A","2016-01-08 22:36:07","115328","1.00271946","0.0003281","3.34","335.6602","314.3017","45.963","0","999","2393","0","-4.5e-07","0","1978154","0 TERRESTAR 1","1 35496U 09035A   16008.94174902 -.00000045  00000-0  00000+0 0  9994","2 35496   3.3400 335.6602 0003281 314.3017  45.9630  1.00271946 23931","2009-035A","35496","42164.686","1436.094","35800.386","35772.717"
"GENERATED VIA SPACETRACK.ORG API","JSPOC","27840","MONITOR-E/SL-19","PAYLOAD","U","03031A","2016-01-08 22:36:07","341696","14.38838879","0.0097067","98.1994","23.4781","262.4871","148.8665","0","999","65768","1.6454e-05","9e-08","0","1978186","0 MONITOR-E/SL-19","1 27840U 03031A   16008.94175164 +.00000009 +00000-0 +16454-4 0  9993","2 27840 098.1994 023.4781 0097067 262.4871 148.8665 14.38838879657686","2003-031A","27840","7140.474","100.080","831.649","693.028"
"GENERATED VIA SPACETRACK.ORG API","JSPOC","40724","FLOCK 1E 4","PAYLOAD","U","98067GG","2016-01-08 22:36:09","131040","15.68490577","0.0002392","51.6407","128.8285","149.8583","310.9522","0","999","2792","0.00042481","0.00048728","0","1978186","0 FLOCK 1E 4","1 40724U 98067GG  16008.94177235 +.00048728 +00000-0 +42481-3 0  9991","2 40724 051.6407 128.8285 0002392 149.8583 310.9522 15.68490577027924","1998-067GG","40724","6741.355","91.808","364.833","361.608"
"GENERATED VIA SPACETRACK.ORG API","JSPOC","10457","TRANSAT","PAYLOAD","U","77106A","2016-01-08 22:36:35","268768","13.48532482","0.0024661","89.7642","184.2185","200.9075","324.3145","0","999","87873","6.0614e-05","4.8e-07","0","1978186","0 TRANSAT","1 10457U 77106A   16008.94207487 +.00000048 +00000-0 +60614-4 0  9997","2 10457 089.7642 184.2185 0024661 200.9075 324.3145 13.48532482878731","1977-106A","10457","7455.799","106.782","1096.051","1059.277"
"GENERATED VIA SPACETRACK.ORG API","JSPOC","20197","SL-14 R/B","ROCKET BODY","U","89068B","2016-01-08 22:36:39","343392","12.40752041","0.002485","73.5656","13.5338","227.0105","143.9079","0","999","19319","5.6549e-05","-1e-07","0","1978186","0 SL-14 R/B","1 20197U 89068B   16008.94212203 -.00000010 +00000-0 +56549-4 0  9993","2 20197 073.5656 013.5338 0024850 227.0105 143.9079 12.40752041193194","1989-068B","20197","7881.553","116.058","1523.004","1483.833"
"GENERATED VIA SPACETRACK.ORG API","JSPOC","25962","GLOBALSTAR M034","PAYLOAD","U","99062B","2016-01-08 22:36:47","892672","11.79373367","0.0014698","51.9894","331.4754","8.0155","30.4167","0","999","73163","-4.5418e-05","-8.4e-07","0","1978186","0 GLOBALSTAR M034","1 25962U 99062B   16008.94222098 -.00000084 +00000-0 -45418-4 0  9991","2 25962 051.9894 331.4754 0014698 008.0155 030.4167 11.79373367731634","1999-062B","25962","8152.690","122.098","1786.538","1762.572"
"GENERATED VIA SPACETRACK.ORG API","JSPOC","15055","COSMOS 1574","PAYLOAD","U","84062A","2016-01-08 22:36:48","871584","13.7426565","0.0026155","82.9562","13.3828","236.3743","136.2047","0","999","58190","2.7577e-05","4.1e-07","0","1978186","0 COSMOS 1574","1 15055U 84062A   16008.94223231 +.00000041 +00000-0 +27577-4 0  9994","2 15055 082.9562 013.3828 0026155 236.3743 136.2047 13.74265650581907","1984-062A","15055","7362.433","104.783","1003.554","965.041"
"GENERATED VIA SPACETRACK.ORG API","JSPOC","3530","COSMOS 252","PAYLOAD","U","68097A","2016-01-08 22:37:10","729056","12.87368846","0.0992557","62.3245","145.7688","352.1853","6.4593","0","999","21465","3.3872e-06","-1e-06","0","1978010","0 COSMOS 252","1 03530U 68097A   16008.94248529 -.00000100  00000-0  33872-5 0  9999","2 03530  62.3245 145.7688 0992557 352.1853   6.4593 12.87368846214656","1968-097A","3530","7690.121","111.856","2075.274","548.697"
"GENERATED VIA SPACETRACK.ORG API","JSPOC","21875","COSMOS 2180","PAYLOAD","U","92008A","2016-01-08 22:37:14","825280","13.73700852","0.0038537","82.9268","166.0006","138.991","22.37","0","999","19739","1.4874e-05","2.9e-07","0","1978186","0 COSMOS 2180","1 21875U 92008A   16008.94253270 +.00000029 +00000-0 +14874-4 0  9998","2 21875 082.9268 166.0006 0038537 138.9910 022.3700 13.73700852197395","1992-008A","21875","7364.451","104.826","1014.696","957.935"
"GENERATED VIA SPACETRACK.ORG API","JSPOC","11132","COSMOS 1055","PAYLOAD","U","78109E","2016-01-08 22:37:20","85312","12.46901012","0.0016002","74.0175","84.8333","86.4153","25.989","0","999","68837","9.7336e-05","-1e-08","0","1978186","0 COSMOS 1055","1 11132U 78109E   16008.94259358 -.00000001 +00000-0 +97336-4 0  9997","2 11132 074.0175 084.8333 0016002 086.4153 025.9890 12.46901012688370","1978-109E","11132","7855.621","115.486","1490.056","1464.915"
